{
  "type": "FeatureCollection",
  "features": [
    {
      "type": "Feature",
      "properties": {
        "norad_id": 33860,
        "name": "IRIDIUM 33 DEB",
        "group": "iridium-33-debris",
        "lat": 36.23160977846222,
        "lon": -151.94742413794387,
        "alt_km": 670.5569509610332,
        "timestamp": "2025-12-04T21:36:16.256835+00:00",
        "meta_object_name": "IRIDIUM 33 DEB",
        "meta_object_id": "1997-051AD",
        "meta_epoch": "2025-12-04T15:05:54.621024",
        "meta_mean_motion": 14.6720223,
        "meta_eccentricity": 0.00084703,
        "meta_inclination": 86.3845,
        "meta_ra_of_asc_node": 30.8279,
        "meta_arg_of_pericenter": 24.4738,
        "meta_mean_anomaly": 128.1182,
        "meta_ephemeris_type": 0,
        "meta_classification_type": "U",
        "meta_norad_cat_id": 33860,
        "meta_element_set_no": 999,
        "meta_rev_at_epoch": 88603,
        "meta_bstar": 0.0030618799,
        "meta_mean_motion_dot": 0.00017288,
        "meta_mean_motion_ddot": 0,
        "tle_line1": "1 33860U 97051AD  25338.62910441  .00017288  00000+0  30619-2 0  9996",
        "tle_line2": "2 33860  86.3845  30.8279 0008470  24.4738 128.1182 14.67202230886037"
      },
      "geometry": {
        "type": "Point",
        "coordinates": [
          -151.94742413794387,
          36.23160977846222
        ]
      }
    },
    {
      "type": "Feature",
      "properties": {
        "norad_id": 33862,
        "name": "IRIDIUM 33 DEB",
        "group": "iridium-33-debris",
        "lat": 59.52214553848022,
        "lon": -145.13680806293777,
        "alt_km": 623.1981986604724,
        "timestamp": "2025-12-04T21:36:16.256846+00:00",
        "meta_object_name": "IRIDIUM 33 DEB",
        "meta_object_id": "1997-051AF",
        "meta_epoch": "2025-12-04T11:18:33.632640",
        "meta_mean_motion": 14.69264317,
        "meta_eccentricity": 0.00539696,
        "meta_inclination": 86.41,
        "meta_ra_of_asc_node": 41.1759,
        "meta_arg_of_pericenter": 96.7491,
        "meta_mean_anomaly": 275.7367,
        "meta_ephemeris_type": 0,
        "meta_classification_type": "U",
        "meta_norad_cat_id": 33862,
        "meta_element_set_no": 999,
        "meta_rev_at_epoch": 88702,
        "meta_bstar": 0.0039010387,
        "meta_mean_motion_dot": 0.00023596,
        "meta_mean_motion_ddot": 0,
        "tle_line1": "1 33862U 97051AF  25338.47122260  .00023596  00000+0  39010-2 0  9998",
        "tle_line2": "2 33862  86.4100  41.1759 0053969  96.7491 275.7367 14.69264317887023"
      },
      "geometry": {
        "type": "Point",
        "coordinates": [
          -145.13680806293777,
          59.52214553848022
        ]
      }
    },
    {
      "type": "Feature",
      "properties": {
        "norad_id": 33866,
        "name": "IRIDIUM 33 DEB",
        "group": "iridium-33-debris",
        "lat": -11.074863776588055,
        "lon": 95.62628910403963,
        "alt_km": 890.0697652831332,
        "timestamp": "2025-12-04T21:36:16.256857+00:00",
        "meta_object_name": "IRIDIUM 33 DEB",
        "meta_object_id": "1997-051AK",
        "meta_epoch": "2025-12-04T14:58:37.871616",
        "meta_mean_motion": 14.25229782,
        "meta_eccentricity": 0.01138143,
        "meta_inclination": 86.3001,
        "meta_ra_of_asc_node": 96.4688,
        "meta_arg_of_pericenter": 187.2582,
        "meta_mean_anomaly": 185.4361,
        "meta_ephemeris_type": 0,
        "meta_classification_type": "U",
        "meta_norad_cat_id": 33866,
        "meta_element_set_no": 999,
        "meta_rev_at_epoch": 86695,
        "meta_bstar": 0.0014526222,
        "meta_mean_motion_dot": 3.671e-05,
        "meta_mean_motion_ddot": 0,
        "tle_line1": "1 33866U 97051AK  25338.62404944  .00003671  00000+0  14526-2 0  9998",
        "tle_line2": "2 33866  86.3001  96.4688 0113814 187.2582 185.4361 14.25229782866952"
      },
      "geometry": {
        "type": "Point",
        "coordinates": [
          95.62628910403963,
          -11.074863776588055
        ]
      }
    },
    {
      "type": "Feature",
      "properties": {
        "norad_id": 33867,
        "name": "IRIDIUM 33 DEB",
        "group": "iridium-33-debris",
        "lat": 29.341670422839236,
        "lon": 172.09122992415683,
        "alt_km": 393.4616797336712,
        "timestamp": "2025-12-04T21:36:16.256867+00:00",
        "meta_object_name": "IRIDIUM 33 DEB",
        "meta_object_id": "1997-051AL",
        "meta_epoch": "2025-12-04T13:14:30.177024",
        "meta_mean_motion": 15.55427003,
        "meta_eccentricity": 0.00122601,
        "meta_inclination": 86.3624,
        "meta_ra_of_asc_node": 354.3184,
        "meta_arg_of_pericenter": 96.5296,
        "meta_mean_anomaly": 263.7363,
        "meta_ephemeris_type": 0,
        "meta_classification_type": "U",
        "meta_norad_cat_id": 33867,
        "meta_element_set_no": 999,
        "meta_rev_at_epoch": 89383,
        "meta_bstar": 0.010802297,
        "meta_mean_motion_dot": 0.0080017,
        "meta_mean_motion_ddot": 0,
        "tle_line1": "1 33867U 97051AL  25338.55173816  .00800170  00000+0  10802-1 0  9993",
        "tle_line2": "2 33867  86.3624 354.3184 0012260  96.5296 263.7363 15.55427003893837"
      },
      "geometry": {
        "type": "Point",
        "coordinates": [
          172.09122992415683,
          29.341670422839236
        ]
      }
    },
    {
      "type": "Feature",
      "properties": {
        "norad_id": 33870,
        "name": "IRIDIUM 33 DEB",
        "group": "iridium-33-debris",
        "lat": -47.93546591254181,
        "lon": -114.35153886755914,
        "alt_km": 732.9570171503265,
        "timestamp": "2025-12-04T21:36:16.256878+00:00",
        "meta_object_name": "IRIDIUM 33 DEB",
        "meta_object_id": "1997-051AP",
        "meta_epoch": "2025-12-04T12:31:35.253984",
        "meta_mean_motion": 14.45780101,
        "meta_eccentricity": 0.00205975,
        "meta_inclination": 86.3758,
        "meta_ra_of_asc_node": 61.7832,
        "meta_arg_of_pericenter": 205.3349,
        "meta_mean_anomaly": 215.0687,
        "meta_ephemeris_type": 0,
        "meta_classification_type": "U",
        "meta_norad_cat_id": 33870,
        "meta_element_set_no": 999,
        "meta_rev_at_epoch": 88018,
        "meta_bstar": 0.0020187312,
        "meta_mean_motion_dot": 7.196e-05,
        "meta_mean_motion_ddot": 0,
        "tle_line1": "1 33870U 97051AP  25338.52193581  .00007196  00000+0  20187-2 0  9990",
        "tle_line2": "2 33870  86.3758  61.7832 0020597 205.3349 215.0687 14.45780101880181"
      },
      "geometry": {
        "type": "Point",
        "coordinates": [
          -114.35153886755914,
          -47.93546591254181
        ]
      }
    },
    {
      "type": "Feature",
      "properties": {
        "norad_id": 33881,
        "name": "IRIDIUM 33 DEB",
        "group": "iridium-33-debris",
        "lat": 24.130496862320655,
        "lon": -71.4745324551471,
        "alt_km": 673.401148998295,
        "timestamp": "2025-12-04T21:36:16.256888+00:00",
        "meta_object_name": "IRIDIUM 33 DEB",
        "meta_object_id": "1997-051BA",
        "meta_epoch": "2025-12-04T15:59:51.160704",
        "meta_mean_motion": 14.56341841,
        "meta_eccentricity": 0.00611928,
        "meta_inclination": 86.3867,
        "meta_ra_of_asc_node": 110.249,
        "meta_arg_of_pericenter": 200.9329,
        "meta_mean_anomaly": 171.205,
        "meta_ephemeris_type": 0,
        "meta_classification_type": "U",
        "meta_norad_cat_id": 33881,
        "meta_element_set_no": 999,
        "meta_rev_at_epoch": 87383,
        "meta_bstar": 0.0044929856,
        "meta_mean_motion_dot": 0.00020483,
        "meta_mean_motion_ddot": 0,
        "tle_line1": "1 33881U 97051BA  25338.66656436  .00020483  00000+0  44930-2 0  9996",
        "tle_line2": "2 33881  86.3867 110.2490 0061192 200.9329 171.2050 14.56341841873836"
      },
      "geometry": {
        "type": "Point",
        "coordinates": [
          -71.4745324551471,
          24.130496862320655
        ]
      }
    },
    {
      "type": "Feature",
      "properties": {
        "norad_id": 33884,
        "name": "IRIDIUM 33 DEB",
        "group": "iridium-33-debris",
        "lat": -55.06256416036911,
        "lon": -161.42833024488172,
        "alt_km": 648.762901256905,
        "timestamp": "2025-12-04T21:36:16.256899+00:00",
        "meta_object_name": "IRIDIUM 33 DEB",
        "meta_object_id": "1997-051BD",
        "meta_epoch": "2025-12-04T02:54:00.284832",
        "meta_mean_motion": 14.77168398,
        "meta_eccentricity": 0.00106133,
        "meta_inclination": 86.3697,
        "meta_ra_of_asc_node": 13.7089,
        "meta_arg_of_pericenter": 355.5376,
        "meta_mean_anomaly": 57.9595,
        "meta_ephemeris_type": 0,
        "meta_classification_type": "U",
        "meta_norad_cat_id": 33884,
        "meta_element_set_no": 999,
        "meta_rev_at_epoch": 88720,
        "meta_bstar": 0.0029953103,
        "meta_mean_motion_dot": 0.00021274,
        "meta_mean_motion_ddot": 0,
        "tle_line1": "1 33884U 97051BD  25338.12083663  .00021274  00000+0  29953-2 0  9993",
        "tle_line2": "2 33884  86.3697  13.7089 0010613 355.5376  57.9595 14.77168398887209"
      },
      "geometry": {
        "type": "Point",
        "coordinates": [
          -161.42833024488172,
          -55.06256416036911
        ]
      }
    }
  ]
}